API VERSION: 1.2
API SOURCE: NASA/JPL Horizons API



*******************************************************************************
Ephemeris / API_USER Fri Apr 10 10:37:36 2026 Pasadena, USA      / Horizons
*******************************************************************************
Target body name: Saturn (699)                    {source: sat441l}
Center body name: Sun (10)                        {source: DE441}
Center-site name: BODY CENTER
*******************************************************************************
Start time      : A.D. 2032-Sep-28 14:06:59.9999 TDB
Stop  time      : A.D. 2032-Sep-30 14:06:59.9999 TDB
Step-size       : 60 minutes
*******************************************************************************
Center geodetic : 0.0, 0.0, 0.0                   {E-lon(deg),Lat(deg),Alt(km)}
Center cylindric: 0.0, 0.0, 0.0                   {E-lon(deg),Dxy(km),Dz(km)}
Center radii    : 695700.0, 695700.0, 695700.0 km {Equator_a, b, pole_c}
Output units    : AU-D
Calendar mode   : Mixed Julian/Gregorian
Output type     : GEOMETRIC cartesian states
Output format   : 3 (position, velocity, LT, range, range-rate)
Reference frame : Ecliptic of J2000.0
*******************************************************************************
            JDTDB,            Calendar Date (TDB),                      X,                      Y,                      Z,                     VX,                     VY,                     VZ,                     LT,                     RG,                     RR,
**************************************************************************************************************************************************************************************************************************************************************************
$$SOE
2463505.338194443, A.D. 2032-Sep-29 20:06:59.9999, -1.468072368323354E-03,  9.013917649105867E+00, -1.566599030944828E-01, -5.875536594692159E-03, -8.345078454383039E-06,  2.339314917473705E-04,  5.206790926125036E-02,  9.015279023154875E+00, -1.145209389549843E-05,
2463505.379861110, A.D. 2032-Sep-29 21:06:59.9999, -1.712886623152426E-03,  9.013917298288014E+00, -1.566501558953658E-01, -5.875547622522081E-03, -8.494208213091769E-06,  2.339340804384636E-04,  5.206790650662865E-02,  9.015278546206906E+00, -1.144143833850344E-05,
2463505.421527776, A.D. 2032-Sep-29 22:06:59.9999, -1.957701335566937E-03,  9.013916941252839E+00, -1.566404085866479E-01, -5.875558556939124E-03, -8.643506432072647E-06,  2.339367505314693E-04,  5.206790375455040E-02,  9.015278069699329E+00, -1.143095172613850E-05,
2463505.463194443, A.D. 2032-Sep-29 23:06:59.9999, -2.202516501481649E-03,  9.013916577993779E+00, -1.566306611652008E-01, -5.875569389615632E-03, -8.792951126578801E-06,  2.339394893542345E-04,  5.206790100497761E-02,  9.015277593625560E+00, -1.142061186847225E-05,
2463505.504861110, A.D. 2032-Sep-30 00:06:59.9999, -2.447332116582073E-03,  9.013916208505192E+00, -1.566209136284214E-01, -5.875580117872423E-03, -8.942519742515656E-06,  2.339422843878261E-04,  5.206789825787769E-02,  9.015277117979954E+00, -1.141039600855998E-05,
2463505.546527776, A.D. 2032-Sep-30 01:06:59.9999, -2.692148176556914E-03,  9.013915832782383E+00, -1.566111659742168E-01, -5.875590744475107E-03, -9.092190449905109E-06,  2.339451239600774E-04,  5.206789551322349E-02,  9.015276642757810E+00, -1.140028212690207E-05,
2463505.588194443, A.D. 2032-Sep-30 02:06:59.9999, -2.936964677313490E-03,  9.013915450821516E+00, -1.566014182009491E-01, -5.875601277018159E-03, -9.241943361292894E-06,  2.339479978658935E-04,  5.206789277099293E-02,  9.015276167955307E+00, -1.139025016975781E-05,
2463505.629861110, A.D. 2032-Sep-30 03:06:59.9999, -3.181781615159682E-03,  9.013915062619528E+00, -1.565916703073666E-01, -5.875611726939071E-03, -9.391761521182393E-06,  2.339508978330971E-04,  5.206789003116840E-02,  9.015275693569393E+00, -1.138028304608588E-05,
2463505.671527776, A.D. 2032-Sep-30 04:06:59.9999, -3.426598986938392E-03,  9.013914668174003E+00, -1.565819222925201E-01, -5.875622108257813E-03, -9.541631511638148E-06,  2.339538177560252E-04,  5.206788729373605E-02,  9.015275219597672E+00, -1.137036723697098E-05,
2463505.713194443, A.D. 2032-Sep-30 05:06:59.9999, -3.671416790106420E-03,  9.013914267482988E+00, -1.565721741556660E-01, -5.875632436189250E-03, -9.691543547596664E-06,  2.339567536385826E-04,  5.206788455868473E-02,  9.015274746038218E+00, -1.136049289008051E-05,
2463505.754861110, A.D. 2032-Sep-30 06:06:59.9999, -3.916235022756125E-03,  9.013913860544882E+00, -1.565624258961936E-01, -5.875642725822298E-03, -9.841491003915523E-06,  2.339597032294477E-04,  5.206788182600534E-02,  9.015274272889449E+00, -1.135065334083431E-05,
2463505.796527776, A.D. 2032-Sep-30 07:06:59.9999, -4.161053683587375E-03,  9.013913447358307E+00, -1.565526775135561E-01, -5.875652991092016E-03, -9.991469436808917E-06,  2.339626654006977E-04,  5.206787909569009E-02,  9.015273800150018E+00, -1.134084412369627E-05,
2463505.838194443, A.D. 2032-Sep-30 08:06:59.9999, -4.405872771846718E-03,  9.013913027922047E+00, -1.565429290072455E-01, -5.875663244281782E-03, -1.014147534837429E-05,  2.339656394239493E-04,  5.206787636773209E-02,  9.015273327818734E+00, -1.133106172475125E-05,
2463505.879861110, A.D. 2032-Sep-30 09:06:59.9999, -4.650692287261023E-03,  9.013912602235029E+00, -1.565331803767850E-01, -5.875673496272268E-03, -1.029150520898554E-05,  2.339686244425020E-04,  5.206787364212533E-02,  9.015272855894551E+00, -1.132130259521732E-05,
2463505.921527776, A.D. 2032-Sep-30 10:06:59.9999, -4.895512229999570E-03,  9.013912170296329E+00, -1.565234316217351E-01, -5.875683757692343E-03, -1.044155561427511E-05,  2.339716196318463E-04,  5.206787091886463E-02,  9.015272384376575E+00, -1.131156331078193E-05,
2463505.963194443, A.D. 2032-Sep-30 11:06:59.9999, -5.140332600704049E-03,  9.013911732105122E+00, -1.565136827416651E-01, -5.875694041012175E-03, -1.059162592837374E-05,  2.339746257927883E-04,  5.206786819794537E-02,  9.015271913264014E+00, -1.130184324092143E-05,
2463506.004861110, A.D. 2032-Sep-30 12:06:59.9999, -5.385153400619746E-03,  9.013911287660447E+00, -1.565039337360187E-01, -5.875704361964703E-03, -1.074172259115926E-05,  2.339776478077771E-04,  5.206786547936220E-02,  9.015271442555926E+00, -1.129214889694471E-05,
2463506.046527776, A.D. 2032-Sep-30 13:06:59.9999, -5.629974631459081E-03,  9.013910836961339E+00, -1.564941846041927E-01, -5.875714727869170E-03, -1.089184072770191E-05,  2.339806837020958E-04,  5.206786276310967E-02,  9.015270972251379E+00, -1.128247536124642E-05,
2463506.088194443, A.D. 2032-Sep-30 14:06:59.9999, -5.874796295417072E-03,  9.013910380006664E+00, -1.564844353454517E-01, -5.875725152356495E-03, -1.104198759238029E-05,  2.339837385673536E-04,  5.206786004918138E-02,  9.015270502349264E+00, -1.127282996113715E-05,
